[{"OBJECT_NAME":"HAWK-11A","OBJECT_ID":"2024-247F","EPOCH":"2026-03-09T12:17:43.893312","MEAN_MOTION":15.28849427,"ECCENTRICITY":0.00054663,"INCLINATION":44.9941,"RA_OF_ASC_NODE":114.3328,"ARG_OF_PERICENTER":327.3713,"MEAN_ANOMALY":32.6832,"EPHEMERIS_TYPE":0,"CLASSIFICATION_TYPE":"U","NORAD_CAT_ID":62382,"ELEMENT_SET_NO":999,"REV_AT_EPOCH":6774,"BSTAR":0.00034106017,"MEAN_MOTION_DOT":9.457e-5,"MEAN_MOTION_DDOT":0},{"OBJECT_NAME":"STARLINK-35755","OBJECT_ID":"2025-303A","EPOCH":"2026-03-09T02:09:41.884704","MEAN_MOTION":15.27594287,"ECCENTRICITY":0.00017003,"INCLINATION":42.9997,"RA_OF_ASC_NODE":314.0948,"ARG_OF_PERICENTER":332.6659,"MEAN_ANOMALY":27.4103,"EPHEMERIS_TYPE":0,"CLASSIFICATION_TYPE":"U","NORAD_CAT_ID":67163,"ELEMENT_SET_NO":999,"REV_AT_EPOCH":1264,"BSTAR":0.001451006,"MEAN_MOTION_DOT":0.00039901,"MEAN_MOTION_DDOT":0}]
